start=new Date('2022-11-12T00:00:00.000Z').valueOf();
sats=[{"OBJECT_NAME":"STARLINK-2049","MEAN_ELEMENT_THEORY":"SGP4","TLE_LINE1":"1 47356U 21005H   22315.62059621  .00004221  00000-0  30217-3 0  9992","RCS_SIZE":"LARGE","RA_OF_ASC_NODE":"81.7857","ECCENTRICITY":"0.00013350","EPHEMERIS_TYPE":"0","CENTER_NAME":"EARTH","ELEMENT_SET_NO":"999","PERIOD":"95.593","MEAN_ANOMALY":"261.8941","COUNTRY_CODE":"US","DECAY_DATE":null,"INCLINATION":"53.0547","GP_ID":"217490204","NORAD_CAT_ID":"47356","BSTAR":"0.00030217000000","FILE":"3651775","MEAN_MOTION":"15.06387805","PERIAPSIS":"546.326","TIME_SYSTEM":"UTC","SITE":"AFETR","APOAPSIS":"548.175","OBJECT_TYPE":"PAYLOAD","OBJECT_ID":"2021-005H","ARG_OF_PERICENTER":"98.2199","REF_FRAME":"TEME","CLASSIFICATION_TYPE":"U","MEAN_MOTION_DDOT":"0.0000000000000","SEMIMAJOR_AXIS":"6925.386","EPOCH":"2022-11-11T14:53:39.512544","REV_AT_EPOCH":"10047","TLE_LINE2":"2 47356  53.0547  81.7857 0001335  98.2199 261.8941 15.06387805100473","LAUNCH_DATE":"2021-01-20","MEAN_MOTION_DOT":"0.00004221"},{"RCS_SIZE":"LARGE","ECCENTRICITY":"0.00011920","RA_OF_ASC_NODE":"110.8655","OBJECT_NAME":"STARLINK-2050","MEAN_ELEMENT_THEORY":"SGP4","TLE_LINE1":"1 47357U 21005J   22315.82791726  .00001135  00000-0  95089-4 0  9994","ELEMENT_SET_NO":"999","MEAN_ANOMALY":"255.7408","PERIOD":"95.592","CENTER_NAME":"EARTH","EPHEMERIS_TYPE":"0","NORAD_CAT_ID":"47357","GP_ID":"217490450","COUNTRY_CODE":"US","DECAY_DATE":null,"INCLINATION":"53.0557","MEAN_MOTION":"15.06406590","PERIAPSIS":"546.368","TIME_SYSTEM":"UTC","FILE":"3651775","BSTAR":"0.00009508900000","ARG_OF_PERICENTER":"104.3713","OBJECT_ID":"2021-005J","OBJECT_TYPE":"PAYLOAD","SITE":"AFETR","APOAPSIS":"548.019","SEMIMAJOR_AXIS":"6925.328","MEAN_MOTION_DDOT":"0.0000000000000","EPOCH":"2022-11-11T19:52:12.051264","REF_FRAME":"TEME","CLASSIFICATION_TYPE":"U","TLE_LINE2":"2 47357  53.0557 110.8655 0001192 104.3713 255.7408 15.06406590100087","REV_AT_EPOCH":"10008","LAUNCH_DATE":"2021-01-20","MEAN_MOTION_DOT":"0.00001135"},{"DECAY_DATE":null,"INCLINATION":"53.0551","COUNTRY_CODE":"US","GP_ID":"217491206","NORAD_CAT_ID":"47358","FILE":"3651775","BSTAR":"0.00007685300000","MEAN_MOTION":"15.06398903","PERIAPSIS":"546.275","TIME_SYSTEM":"UTC","MEAN_ELEMENT_THEORY":"SGP4","TLE_LINE1":"1 47358U 21005K   22315.76338826  .00000863  00000-0  76853-4 0  9991","OBJECT_NAME":"STARLINK-2055","ECCENTRICITY":"0.00013600","RA_OF_ASC_NODE":"81.1498","RCS_SIZE":"LARGE","CENTER_NAME":"EARTH","EPHEMERIS_TYPE":"0","PERIOD":"95.592","MEAN_ANOMALY":"251.8050","ELEMENT_SET_NO":"999","REV_AT_EPOCH":"10049","TLE_LINE2":"2 47358  53.0551  81.1498 0001360 108.3087 251.8050 15.06398903100495","MEAN_MOTION_DOT":"0.00000863","LAUNCH_DATE":"2021-01-20","APOAPSIS":"548.159","SITE":"AFETR","OBJECT_TYPE":"PAYLOAD","ARG_OF_PERICENTER":"108.3087","OBJECT_ID":"2021-005K","CLASSIFICATION_TYPE":"U","REF_FRAME":"TEME","EPOCH":"2022-11-11T18:19:16.745664","MEAN_MOTION_DDOT":"0.0000000000000","SEMIMAJOR_AXIS":"6925.352"},{"APOAPSIS":"548.130","SITE":"AFETR","OBJECT_TYPE":"PAYLOAD","ARG_OF_PERICENTER":"88.2864","OBJECT_ID":"2021-005L","CLASSIFICATION_TYPE":"U","REF_FRAME":"TEME","EPOCH":"2022-11-11T17:00:21.750048","MEAN_MOTION_DDOT":"0.0000000000000","SEMIMAJOR_AXIS":"6925.315","REV_AT_EPOCH":"10013","TLE_LINE2":"2 47359  53.0549 106.3887 0001371  88.2864 271.8282 15.06410884100139","MEAN_MOTION_DOT":"-0.00002863","LAUNCH_DATE":"2021-01-20","TLE_LINE1":"1 47359U 21005L   22315.70858507 -.00002863  00000-0 -17332-3 0  9999","MEAN_ELEMENT_THEORY":"SGP4","OBJECT_NAME":"STARLINK-2069","RA_OF_ASC_NODE":"106.3887","ECCENTRICITY":"0.00013710","RCS_SIZE":"LARGE","CENTER_NAME":"EARTH","EPHEMERIS_TYPE":"0","PERIOD":"95.591","MEAN_ANOMALY":"271.8282","ELEMENT_SET_NO":"999","DECAY_DATE":null,"INCLINATION":"53.0549","COUNTRY_CODE":"US","GP_ID":"217491924","NORAD_CAT_ID":"47359","FILE":"3651775","BSTAR":"-0.00017332000000","MEAN_MOTION":"15.06410884","PERIAPSIS":"546.231","TIME_SYSTEM":"UTC"},{"OBJECT_NAME":"STARLINK-2070","MEAN_ELEMENT_THEORY":"SGP4","TLE_LINE1":"1 47360U 21005M   22315.71505382  .00003987  00000-0  28650-3 0  9993","RCS_SIZE":"LARGE","RA_OF_ASC_NODE":"76.3687","ECCENTRICITY":"0.00014530","CENTER_NAME":"EARTH","EPHEMERIS_TYPE":"0","ELEMENT_SET_NO":"999","MEAN_ANOMALY":"268.0807","PERIOD":"95.593","COUNTRY_CODE":"US","DECAY_DATE":null,"INCLINATION":"53.0547","NORAD_CAT_ID":"47360","GP_ID":"217490704","FILE":"3651775","BSTAR":"0.00028650000000","PERIAPSIS":"546.254","MEAN_MOTION":"15.06384763","TIME_SYSTEM":"UTC","SITE":"AFETR","APOAPSIS":"548.267","OBJECT_ID":"2021-005M","ARG_OF_PERICENTER":"92.0348","OBJECT_TYPE":"PAYLOAD","REF_FRAME":"TEME","CLASSIFICATION_TYPE":"U","SEMIMAJOR_AXIS":"6925.395","MEAN_MOTION_DDOT":"0.0000000000000","EPOCH":"2022-11-11T17:09:40.650048","REV_AT_EPOCH":"10056","TLE_LINE2":"2 47360  53.0547  76.3687 0001453  92.0348 268.0807 15.06384763100568","LAUNCH_DATE":"2021-01-20","MEAN_MOTION_DOT":"0.00003987"},{"PERIOD":"95.592","MEAN_ANOMALY":"259.9370","ELEMENT_SET_NO":"999","CENTER_NAME":"EARTH","EPHEMERIS_TYPE":"0","RA_OF_ASC_NODE":"81.1190","ECCENTRICITY":"0.00012870","RCS_SIZE":"LARGE","TLE_LINE1":"1 47361U 21005N   22315.77171416  .00009300  00000-0  64237-3 0  9993","MEAN_ELEMENT_THEORY":"SGP4","OBJECT_NAME":"STARLINK-2071","TIME_SYSTEM":"UTC","PERIAPSIS":"546.318","MEAN_MOTION":"15.06401443","BSTAR":"0.00064237000000","FILE":"3651775","GP_ID":"217490950","NORAD_CAT_ID":"47361","INCLINATION":"53.0549","DECAY_DATE":null,"COUNTRY_CODE":"US","EPOCH":"2022-11-11T18:31:16.103424","MEAN_MOTION_DDOT":"0.0000000000000","SEMIMAJOR_AXIS":"6925.344","CLASSIFICATION_TYPE":"U","REF_FRAME":"TEME","OBJECT_TYPE":"PAYLOAD","ARG_OF_PERICENTER":"100.1765","OBJECT_ID":"2021-005N","APOAPSIS":"548.100","SITE":"AFETR","MEAN_MOTION_DOT":"0.00009300","LAUNCH_DATE":"2021-01-20","TLE_LINE2":"2 47361  53.0549  81.1190 0001287 100.1765 259.9370 15.06401443100494","REV_AT_EPOCH":"10049"},{"EPOCH":"2022-11-11T19:36:17.231040","SEMIMAJOR_AXIS":"6925.328","MEAN_MOTION_DDOT":"0.0000000000000","CLASSIFICATION_TYPE":"U","REF_FRAME":"TEME","ARG_OF_PERICENTER":"101.2780","OBJECT_ID":"2021-005P","OBJECT_TYPE":"PAYLOAD","APOAPSIS":"548.057","SITE":"AFETR","MEAN_MOTION_DOT":"0.00002401","LAUNCH_DATE":"2021-01-20","TLE_LINE2":"2 47362  53.0550 110.9151 0001248 101.2780 258.8349 15.06406847100083","REV_AT_EPOCH":"10008","MEAN_ANOMALY":"258.8349","PERIOD":"95.592","ELEMENT_SET_NO":"999","EPHEMERIS_TYPE":"0","CENTER_NAME":"EARTH","RA_OF_ASC_NODE":"110.9151","ECCENTRICITY":"0.00012480","RCS_SIZE":"LARGE","TLE_LINE1":"1 47362U 21005P   22315.81686610  .00002401  00000-0  18000-3 0  9998","MEAN_ELEMENT_THEORY":"SGP4","OBJECT_NAME":"STARLINK-2076","MEAN_MOTION":"15.06406847","PERIAPSIS":"546.328","TIME_SYSTEM":"UTC","BSTAR":"0.00018000000000","FILE":"3651775","NORAD_CAT_ID":"47362","GP_ID":"217491706","DECAY_DATE":null,"INCLINATION":"53.0550","COUNTRY_CODE":"US"},{"NORAD_CAT_ID":"47363","GP_ID":"217491425","COUNTRY_CODE":"US","DECAY_DATE":null,"INCLINATION":"53.0550","PERIAPSIS":"546.208","MEAN_MOTION":"15.06392134","TIME_SYSTEM":"UTC","FILE":"3651775","BSTAR":"0.00008458300000","RCS_SIZE":"LARGE","RA_OF_ASC_NODE":"110.5793","ECCENTRICITY":"0.00014870","OBJECT_NAME":"STARLINK-2077","MEAN_ELEMENT_THEORY":"SGP4","TLE_LINE1":"1 47363U 21005Q   22315.88690034  .00000978  00000-0  84583-4 0  9998","ELEMENT_SET_NO":"999","MEAN_ANOMALY":"271.7272","PERIOD":"95.593","EPHEMERIS_TYPE":"0","CENTER_NAME":"EARTH","TLE_LINE2":"2 47363  53.0550 110.5793 0001487  88.3887 271.7272 15.06392134100093","REV_AT_EPOCH":"10009","LAUNCH_DATE":"2021-01-20","MEAN_MOTION_DOT":"0.00000978","OBJECT_ID":"2021-005Q","ARG_OF_PERICENTER":"88.3887","OBJECT_TYPE":"PAYLOAD","SITE":"AFETR","APOAPSIS":"548.267","SEMIMAJOR_AXIS":"6925.373","MEAN_MOTION_DDOT":"0.0000000000000","EPOCH":"2022-11-11T21:17:08.189376","REF_FRAME":"TEME","CLASSIFICATION_TYPE":"U"},{"LAUNCH_DATE":"2021-01-20","MEAN_MOTION_DOT":"-0.00000466","REV_AT_EPOCH":"10008","TLE_LINE2":"2 47366  53.0561 110.7848 0001383 115.3338 244.7794 15.06401691100085","REF_FRAME":"TEME","CLASSIFICATION_TYPE":"U","SEMIMAJOR_AXIS":"6925.343","MEAN_MOTION_DDOT":"0.0000000000000","EPOCH":"2022-11-11T20:18:44.974368","SITE":"AFETR","APOAPSIS":"548.166","ARG_OF_PERICENTER":"115.3338","OBJECT_ID":"2021-005T","OBJECT_TYPE":"PAYLOAD","BSTAR":"-0.00001239000000","FILE":"3651775","MEAN_MOTION":"15.06401691","PERIAPSIS":"546.251","TIME_SYSTEM":"UTC","COUNTRY_CODE":"US","INCLINATION":"53.0561","DECAY_DATE":null,"NORAD_CAT_ID":"47366","GP_ID":"217490205","CENTER_NAME":"EARTH","EPHEMERIS_TYPE":"0","ELEMENT_SET_NO":"999","MEAN_ANOMALY":"244.7794","PERIOD":"95.592","OBJECT_NAME":"STARLINK-2081","TLE_LINE1":"1 47366U 21005T   22315.84635387 -.00000466  00000-0 -12390-4 0  9998","MEAN_ELEMENT_THEORY":"SGP4","RCS_SIZE":"LARGE","RA_OF_ASC_NODE":"110.7848","ECCENTRICITY":"0.00013830"},{"OBJECT_NAME":"STARLINK-2082","TLE_LINE1":"1 47367U 21005U   22315.87214790  .00000573  00000-0  57315-4 0  9996","MEAN_ELEMENT_THEORY":"SGP4","RCS_SIZE":"LARGE","RA_OF_ASC_NODE":"110.6445","ECCENTRICITY":"0.00012770","CENTER_NAME":"EARTH","EPHEMERIS_TYPE":"0","ELEMENT_SET_NO":"999","MEAN_ANOMALY":"260.7154","PERIOD":"95.592","COUNTRY_CODE":"US","DECAY_DATE":null,"INCLINATION":"53.0556","NORAD_CAT_ID":"47367","GP_ID":"217490451","BSTAR":"0.00005731500000","FILE":"3651775","TIME_SYSTEM":"UTC","PERIAPSIS":"546.309","MEAN_MOTION":"15.06406717","SITE":"AFETR","APOAPSIS":"548.077","OBJECT_ID":"2021-005U","ARG_OF_PERICENTER":"99.3980","OBJECT_TYPE":"PAYLOAD","REF_FRAME":"TEME","CLASSIFICATION_TYPE":"U","SEMIMAJOR_AXIS":"6925.328","MEAN_MOTION_DDOT":"0.0000000000000","EPOCH":"2022-11-11T20:55:53.578560","REV_AT_EPOCH":"10009","TLE_LINE2":"2 47367  53.0556 110.6445 0001277  99.3980 260.7154 15.06406717100091","LAUNCH_DATE":"2021-01-20","MEAN_MOTION_DOT":"0.00000573"}];
